OBJECT_NAME,OBJECT_ID,EPOCH,MEAN_MOTION,ECCENTRICITY,INCLINATION,RA_OF_ASC_NODE,ARG_OF_PERICENTER,MEAN_ANOMALY,EPHEMERIS_TYPE,CLASSIFICATION_TYPE,NORAD_CAT_ID,ELEMENT_SET_NO,REV_AT_EPOCH,BSTAR,MEAN_MOTION_DOT,MEAN_MOTION_DDOT
BIRKELAND,2023-001G,2026-06-30T12:43:32.253888,15.40306588,.00078631,97.3343,249.5354,67.2618,292.9458,0,U,55015,999,19440,.21555893E-3,.8612E-4,0
ION SCV-008,2023-001AU,2026-06-30T06:20:38.183712,15.28724179,.00138156,97.5720,277.8019,331.1838,28.8637,0,U,55051,999,19333,.2426715E-3,.6716E-4,0
ION SCV-007,2023-001BD,2026-06-30T03:10:50.394144,14.77564431,.00110291,97.9002,243.8905,297.0407,62.9677,0,U,55060,999,18816,.6865162E-4,.44E-5,0
HUYGENS,2023-001CN,2026-06-30T12:43:38.730432,15.40306460,.00101182,97.3248,248.7479,44.6902,315.5158,0,U,55093,999,19442,.22000411E-3,.8797E-4,0
SHARJAHSAT-1,2023-001CZ,2026-06-30T13:07:38.836992,15.49584877,.00061982,97.3173,250.5015,65.3512,294.8384,0,U,55104,999,19456,.36454915E-3,.20077E-3,0
HORUS 1,2023-025A,2026-06-30T13:16:40.527840,15.23398329,.00022779,97.3464,255.8666,134.1257,226.0168,0,U,55690,999,18608,.24140595E-3,.5675E-4,0
HORUS 2,2023-032A,2026-06-30T12:31:18.614208,15.23562517,.00022488,97.3536,256.6563,93.5638,266.5857,0,U,55844,999,18351,.22448904E-3,.5298E-4,0
GLOBAL-19,2023-041B,2026-06-30T03:35:55.730112,15.38319633,.00073785,42.0005,126.2775,106.9002,253.2647,0,U,55982,999,18392,.38185991E-3,.14525E-3,0
ION SCV-010,2023-054Q,2026-06-30T06:32:20.113728,15.26304072,.00135692,97.3767,70.6068,151.4261,208.7724,0,U,56192,999,17819,.16484032E-3,.4214E-4,0
TELEOS-2,2023-057C,2026-06-29T22:52:25.552128,14.96378083,.00009235,9.9878,111.2185,259.9991,100.0118,0,U,56310,999,17471,.32934047E-3,.4522E-4,0
SNIPE 4,2023-072B,2026-06-30T13:50:39.598080,15.42837914,.00038386,97.5234,28.0102,272.3278,87.7530,0,U,56744,999,17217,.43932316E-3,.19194E-3,0
SNIPE 2,2023-072C,2026-06-30T13:55:17.005152,15.47507174,.00030062,97.5226,31.1518,313.0388,47.0610,0,U,56745,999,17231,.47048477E-3,.24121E-3,0
2023-072G,2023-072G,2026-06-30T13:09:13.428576,15.51314480,.00015651,97.4880,29.9379,298.3333,61.7761,0,U,56749,999,17253,.49412721E-3,.28975E-3,0
GEISAT PRECURSOR,2023-084C,2026-06-30T14:02:09.485664,15.34828183,.0004086,97.6240,322.9809,299.2141,60.8692,0,U,56934,999,16958,.20158836E-3,.6724E-4,0
BLACKJACK ACES-3,2023-084U,2026-06-30T09:57:39.083616,15.18594893,.00014467,97.6229,316.7075,357.7479,2.3748,0,U,56950,999,16917,.23630388E-3,.4817E-4,0
BLACKJACK ACES-2,2023-084Z,2026-06-30T10:06:08.203392,15.18569421,.00006572,97.6227,316.7988,134.6911,225.4376,0,U,56955,999,16918,.21308115E-3,.4334E-4,0
BLACKJACK ACES-1,2023-084AA,2026-06-30T09:48:47.463552,15.18614719,.00013029,97.6215,316.5582,127.1180,233.0173,0,U,56956,999,11890,.30879089E-3,.6321E-4,0
ION SCV-011,2023-084AB,2026-06-30T13:09:50.924448,15.28970351,.00070082,98.1373,10.0666,1.9721,358.1543,0,U,56957,999,16785,.17950711E-3,.4965E-4,0
GHOST-3,2023-084AC,2026-06-30T09:56:37.565088,15.48309619,.0006006,97.6229,330.6996,239.8099,120.2556,0,U,56958,999,17006,.30848014E-3,.16219E-3,0
AFR-1,2023-084AJ,2026-06-30T14:04:21.327744,15.28663653,.00090626,97.6292,318.6012,294.7991,65.2305,0,U,56964,999,16927,.1616628E-3,.4431E-4,0
METEOR-M2 3,2023-091A,2026-06-30T14:07:54.732288,14.24047905,.00049417,98.6076,236.2926,123.1027,237.0627,0,U,57166,999,15642,.26991609E-4,.19E-6,0
UMKA 1 (RS40S),2023-091G,2026-06-30T13:57:20.416320,15.20969733,.00141462,97.5045,240.2277,76.2291,284.0518,0,U,57172,999,16604,.29509261E-3,.6485E-4,0
2023-091H,2023-091H,2026-06-30T12:51:16.087104,15.28919782,.00108528,97.5045,244.8373,72.4165,287.8260,0,U,57173,999,16634,.41566259E-3,.11626E-3,0
2023-091J,2023-091J,2026-06-30T12:56:33.231264,15.14019725,.0014861,97.5049,234.4455,101.5045,258.7856,0,U,57174,999,16565,.2027573E-3,.3626E-4,0
CUBEBEL 2 (EU11S),2023-091K,2026-06-30T12:45:46.220544,15.29483957,.00108416,97.5048,244.8698,73.8448,286.3985,0,U,57175,999,16634,.48529827E-3,.13828E-3,0
SITRO-AIS 5 (KATYS),2023-091L,2026-06-30T13:06:35.508384,15.29756280,.00121197,97.5056,245.5745,61.7271,298.5191,0,U,57176,999,16638,.40881743E-3,.11737E-3,0
ZORKIY-2M 1,2023-091M,2026-06-30T13:36:32.231808,15.21076163,.00145893,97.5086,240.4904,73.4973,286.7864,0,U,57177,999,16603,.32270812E-3,.7123E-4,0
CUBESX-HSE 3 (RS42S),2023-091N,2026-06-30T13:39:35.241696,15.31545440,.00111952,97.5089,247.3275,52.4979,307.7278,0,U,57178,999,16647,.4154775E-3,.12608E-3,0
MONITOR-3 (RS58S),2023-091Q,2026-06-30T13:23:26.867040,15.28106339,.00124422,97.5080,245.1035,58.9364,301.3095,0,U,57180,999,16633,.38000047E-3,.10364E-3,0
MONITOR-4 (RS57S),2023-091S,2026-06-30T12:52:13.357344,15.28190696,.00124515,97.5074,245.0537,59.2574,300.9890,0,U,57182,999,16633,.39371122E-3,.1077E-3,0
