BIRKELAND               
1 55015U 23001G   26181.53023442  .00008612  00000+0  21556-3 0  9991
2 55015  97.3343 249.5354 0007863  67.2618 292.9458 15.40306588194400
ION SCV-008             
1 55051U 23001AU  26181.26433083  .00006716  00000+0  24267-3 0  9992
2 55051  97.5720 277.8019 0013815 331.1838  28.8637 15.28724179193336
ION SCV-007             
1 55060U 23001BD  26181.13252771  .00000440  00000+0  68652-4 0  9996
2 55060  97.9002 243.8905 0011029 297.0407  62.9677 14.77564431188161
HUYGENS                 
1 55093U 23001CN  26181.53030938  .00008797  00000+0  22000-3 0  9994
2 55093  97.3248 248.7479 0010118  44.6902 315.5158 15.40306460194421
SHARJAHSAT-1            
1 55104U 23001CZ  26181.54697728  .00020077  00000+0  36455-3 0  9998
2 55104  97.3173 250.5015 0006198  65.3512 294.8384 15.49584877194562
HORUS 1                 
1 55690U 23025A   26181.55324685  .00005675  00000+0  24141-3 0  9990
2 55690  97.3464 255.8666 0002277 134.1257 226.0168 15.23398329186082
HORUS 2                 
1 55844U 23032A   26181.52174322  .00005298  00000+0  22449-3 0  9997
2 55844  97.3536 256.6563 0002248  93.5638 266.5857 15.23562517183518
GLOBAL-19               
1 55982U 23041B   26181.14995058  .00014525  00000+0  38186-3 0  9993
2 55982  42.0005 126.2775 0007378 106.9002 253.2647 15.38319633183929
ION SCV-010             
1 56192U 23054Q   26181.27245502  .00004214  00000+0  16484-3 0  9998
2 56192  97.3767  70.6068 0013569 151.4261 208.7724 15.26304072178191
TELEOS-2                
1 56310U 23057C   26180.95307352  .00004522  00000+0  32934-3 0  9999
2 56310   9.9878 111.2185 0000923 259.9991 100.0118 14.96378083174715
SNIPE 4                 
1 56744U 23072B   26181.57684720  .00019194  00000+0  43932-3 0  9994
2 56744  97.5234  28.0102 0003838 272.3278  87.7530 15.42837914172176
SNIPE 2                 
1 56745U 23072C   26181.58005793  .00024121  00000+0  47048-3 0  9991
2 56745  97.5226  31.1518 0003006 313.0388  47.0610 15.47507174172317
2023-072G               
1 56749U 23072G   26181.54807209  .00028975  00000+0  49413-3 0  9992
2 56749  97.4880  29.9379 0001565 298.3333  61.7761 15.51314480172534
GEISAT PRECURSOR        
1 56934U 23084C   26181.58483201  .00006724  00000+0  20159-3 0  9991
2 56934  97.6240 322.9809 0004086 299.2141  60.8692 15.34828183169589
BLACKJACK ACES-3        
1 56950U 23084U   26181.41503569  .00004817  00000+0  23630-3 0  9999
2 56950  97.6229 316.7075 0001446 357.7479   2.3748 15.18594893169179
BLACKJACK ACES-2        
1 56955U 23084Z   26181.42092828  .00004334  00000+0  21308-3 0  9990
2 56955  97.6227 316.7988 0000657 134.6911 225.4376 15.18569421169186
BLACKJACK ACES-1        
1 56956U 23084AA  26181.40888268  .00006321  00000+0  30879-3 0  9991
2 56956  97.6215 316.5582 0001302 127.1180 233.0173 15.18614719118900
ION SCV-011             
1 56957U 23084AB  26181.54850607  .00004965  00000+0  17951-3 0  9991
2 56957  98.1373  10.0666 0007008   1.9721 358.1543 15.28970351167856
GHOST-3                 
1 56958U 23084AC  26181.41432367  .00016219  00000+0  30848-3 0  9992
2 56958  97.6229 330.6996 0006006 239.8099 120.2556 15.48309619170069
AFR-1                   
1 56964U 23084AJ  26181.58635796  .00004431  00000+0  16166-3 0  9998
2 56964  97.6292 318.6012 0009062 294.7991  65.2305 15.28663653169277
METEOR-M2 3             
1 57166U 23091A   26181.58882792  .00000019  00000+0  26992-4 0  9998
2 57166  98.6076 236.2926 0004941 123.1027 237.0627 14.24047905156428
UMKA 1 (RS40S)          
1 57172U 23091G   26181.58148630  .00006485  00000+0  29509-3 0  9990
2 57172  97.5045 240.2277 0014146  76.2291 284.0518 15.20969733166041
2023-091H               
1 57173U 23091H   26181.53560286  .00011626  00000+0  41566-3 0  9991
2 57173  97.5045 244.8373 0010852  72.4165 287.8260 15.28919782166342
2023-091J               
1 57174U 23091J   26181.53927351  .00003626  00000+0  20276-3 0  9998
2 57174  97.5049 234.4455 0014861 101.5045 258.7856 15.14019725165652
CUBEBEL 2 (EU11S)       
1 57175U 23091K   26181.53178496  .00013828  00000+0  48530-3 0  9995
2 57175  97.5048 244.8698 0010841  73.8448 286.3985 15.29483957166343
SITRO-AIS 5 (KATYS)     
1 57176U 23091L   26181.54624431  .00011737  00000+0  40882-3 0  9991
2 57176  97.5056 245.5745 0012119  61.7271 298.5191 15.29756280166384
ZORKIY-2M 1             
1 57177U 23091M   26181.56703972  .00007123  00000+0  32271-3 0  9999
2 57177  97.5086 240.4904 0014589  73.4973 286.7864 15.21076163166036
CUBESX-HSE 3 (RS42S)    
1 57178U 23091N   26181.56915789  .00012608  00000+0  41548-3 0  9992
2 57178  97.5089 247.3275 0011195  52.4979 307.7278 15.31545440166471
MONITOR-3 (RS58S)       
1 57180U 23091Q   26181.55794985  .00010364  00000+0  38000-3 0  9993
2 57180  97.5080 245.1035 0012442  58.9364 301.3095 15.28106339166338
MONITOR-4 (RS57S)       
1 57182U 23091S   26181.53626571  .00010770  00000+0  39371-3 0  9991
2 57182  97.5074 245.0537 0012451  59.2574 300.9890 15.28190696166333
